{
"type": "FeatureCollection",
"name": "sf_boundary",
"crs": { "type": "name", "properties": { "name": "urn:ogc:def:crs:OGC:1.3:CRS84" } },
"features": [
{ "type": "Feature", "properties": { "osm_type": "relation", "osm_id": 111968, "display_name": "San Francisco, California, United States" }, "geometry": { "type": "MultiPolygon", "coordinates": [ [ [ [ -123.173825, 37.775727 ], [ -123.173763, 37.771831 ], [ -123.172926, 37.7636 ], [ -123.169985, 37.75593 ], [ -123.166699, 37.74993 ], [ -123.162751, 37.743533 ], [ -123.156757, 37.73784 ], [ -123.149127, 37.732279 ], [ -123.141495, 37.72616 ], [ -123.132597, 37.719393 ], [ -123.126114, 37.71673 ], [ -123.119645, 37.715441 ], [ -123.115575, 37.714045 ], [ -123.104921, 37.712648 ], [ -123.099647, 37.713591 ], [ -123.094801, 37.714067 ], [ -123.09285, 37.713688 ], [ -123.0918, 37.711872 ], [ -123.088784, 37.705792 ], [ -123.086057, 37.70075 ], [ -123.077155, 37.692324 ], [ -123.074921, 37.690066 ], [ -123.073063, 37.682583 ], [ -123.068589, 37.673041 ], [ -123.063578, 37.667316 ], [ -123.05358, 37.658648 ], [ -123.040696, 37.650328 ], [ -123.027153, 37.645221 ], [ -123.011605, 37.641506 ], [ -123.0011315, 37.6403143 ], [ -122.992589, 37.641016 ], [ -122.986747, 37.641783 ], [ -122.980513, 37.6439 ], [ -122.973012, 37.646581 ], [ -122.963006, 37.651984 ], [ -122.954876, 37.658348 ], [ -122.949068, 37.663377 ], [ -122.945009, 37.669773 ], [ -122.941364, 37.67658 ], [ -122.939661, 37.682353 ], [ -122.939026, 37.686544 ], [ -122.937339, 37.69093 ], [ -122.93571, 37.697618 ], [ -122.935865, 37.702459 ], [ -122.937679, 37.709241 ], [ -122.939711, 37.71535 ], [ -122.942294, 37.721057 ], [ -122.945523, 37.725314 ], [ -122.949985, 37.732187 ], [ -122.95464, 37.736827 ], [ -122.958391, 37.739734 ], [ -122.961057, 37.741955 ], [ -122.964099, 37.744281 ], [ -122.967271, 37.746303 ], [ -122.970449, 37.747818 ], [ -122.973256, 37.748652 ], [ -122.974061, 37.749929 ], [ -122.975448, 37.752585 ], [ -122.977596, 37.754976 ], [ -122.981429, 37.758916 ], [ -122.9830301, 37.760203 ], [ -122.9871818, 37.7640703 ], [ -122.9915659, 37.7672733 ], [ -122.9945311, 37.7692015 ], [ -122.997538, 37.770784 ], [ -123.00111, 37.772053 ], [ -123.0108475, 37.7749243 ], [ -123.01697, 37.776069 ], [ -123.02585, 37.77709 ], [ -123.031436, 37.777153 ], [ -123.033841, 37.778375 ], [ -123.035097, 37.780431 ], [ -123.0366485, 37.784444 ], [ -123.038726, 37.788881 ], [ -123.043, 37.7947642 ], [ -123.0485017, 37.800034 ], [ -123.0535314, 37.8041641 ], [ -123.059355, 37.808138 ], [ -123.070494, 37.81383 ], [ -123.081646, 37.818151 ], [ -123.095261, 37.821877 ], [ -123.1050169, 37.823106 ], [ -123.1138532, 37.8232416 ], [ -123.118289, 37.823058 ], [ -123.126114, 37.821664 ], [ -123.132272, 37.819676 ], [ -123.139441, 37.816719 ], [ -123.147209, 37.811951 ], [ -123.153335, 37.807444 ], [ -123.160936, 37.802002 ], [ -123.166012, 37.796885 ], [ -123.169107, 37.792365 ], [ -123.173825, 37.775727 ] ] ], [ [ [ -122.6162066, 37.8153638 ], [ -122.6139438, 37.8138868 ], [ -122.600236, 37.802483 ], [ -122.588174, 37.789362 ], [ -122.584728, 37.779156 ], [ -122.581281, 37.760203 ], [ -122.5754041, 37.7082697 ], [ -122.2814578, 37.7082002 ], [ -122.3289108, 37.7830802 ], [ -122.3466351, 37.8108018 ], [ -122.3661865, 37.86339 ], [ -122.3686918, 37.8698665 ], [ -122.3705269, 37.8749272 ], [ -122.37382, 37.8835693 ], [ -122.4321472, 37.9296678 ], [ -122.418742, 37.8525993 ], [ -122.4473403, 37.8416714 ], [ -122.453983, 37.839027 ], [ -122.4722505, 37.8321604 ], [ -122.4729984, 37.8319829 ], [ -122.4736616, 37.8321749 ], [ -122.473772, 37.8322847 ], [ -122.4740682, 37.8330455 ], [ -122.4740632, 37.8336006 ], [ -122.4743512, 37.8337841 ], [ -122.4751658, 37.8337112 ], [ -122.476721, 37.8337376 ], [ -122.4779586, 37.8332979 ], [ -122.4781747, 37.8330848 ], [ -122.478174, 37.8328314 ], [ -122.4781202, 37.832628 ], [ -122.4778734, 37.8324043 ], [ -122.4777384, 37.8321438 ], [ -122.4777932, 37.8315238 ], [ -122.4785473, 37.8309062 ], [ -122.4789275, 37.8300703 ], [ -122.4789711, 37.8297002 ], [ -122.4788861, 37.8294205 ], [ -122.4787113, 37.8292737 ], [ -122.4786368, 37.8290906 ], [ -122.4786485, 37.8286572 ], [ -122.4788098, 37.8282095 ], [ -122.4787042, 37.8280326 ], [ -122.4788354, 37.8277903 ], [ -122.4787136, 37.8275756 ], [ -122.478739, 37.8268365 ], [ -122.4784126, 37.8264739 ], [ -122.4783866, 37.8260787 ], [ -122.478148, 37.8254867 ], [ -122.4782135, 37.8252777 ], [ -122.4785895, 37.8253183 ], [ -122.4789165, 37.8255421 ], [ -122.4796277, 37.8254487 ], [ -122.4802436, 37.8255659 ], [ -122.4808107, 37.8258734 ], [ -122.4816996, 37.8260361 ], [ -122.482174, 37.8259166 ], [ -122.4823696, 37.8257384 ], [ -122.4831138, 37.8257146 ], [ -122.4834378, 37.8266089 ], [ -122.4843019, 37.826891 ], [ -122.4847401, 37.8268762 ], [ -122.4849682, 37.8265438 ], [ -122.4852033, 37.8265168 ], [ -122.4854585, 37.82636 ], [ -122.4858617, 37.8263508 ], [ -122.4861598, 37.8262303 ], [ -122.4875857, 37.8264528 ], [ -122.4883213, 37.8267246 ], [ -122.4891463, 37.8266963 ], [ -122.4896063, 37.8267922 ], [ -122.491219, 37.8264768 ], [ -122.4915295, 37.8262776 ], [ -122.4915412, 37.8258473 ], [ -122.4919273, 37.8253929 ], [ -122.4920705, 37.825005 ], [ -122.4922729, 37.8248501 ], [ -122.4928441, 37.8247714 ], [ -122.4932333, 37.8246035 ], [ -122.4934857, 37.8239309 ], [ -122.4945451, 37.8232535 ], [ -122.4949981, 37.8226226 ], [ -122.4959537, 37.8220476 ], [ -122.4960917, 37.8220979 ], [ -122.4963206, 37.822439 ], [ -122.4968161, 37.822371 ], [ -122.4984712, 37.8223775 ], [ -122.4991472, 37.8222526 ], [ -122.499809, 37.821891 ], [ -122.5000178, 37.8215817 ], [ -122.499914, 37.8213356 ], [ -122.49996, 37.8210244 ], [ -122.4996946, 37.820756 ], [ -122.4995754, 37.8204839 ], [ -122.499185, 37.8202844 ], [ -122.4991271, 37.8201027 ], [ -122.4993053, 37.8199182 ], [ -122.5003989, 37.8199406 ], [ -122.5006974, 37.8200216 ], [ -122.5012872, 37.8206218 ], [ -122.5018063, 37.8209806 ], [ -122.5018193, 37.8210961 ], [ -122.501548, 37.8213505 ], [ -122.5016046, 37.8215006 ], [ -122.5017863, 37.8215807 ], [ -122.5020588, 37.8215295 ], [ -122.5021024, 37.8212788 ], [ -122.5024516, 37.8212163 ], [ -122.502999, 37.8209004 ], [ -122.5034745, 37.8209424 ], [ -122.5033765, 37.8210803 ], [ -122.5034591, 37.8211558 ], [ -122.5042436, 37.8209433 ], [ -122.5046389, 37.8209293 ], [ -122.5047096, 37.8210989 ], [ -122.5048772, 37.8212182 ], [ -122.5048654, 37.8213664 ], [ -122.5048076, 37.8215658 ], [ -122.5045575, 37.8217475 ], [ -122.5048547, 37.8219078 ], [ -122.5053078, 37.8219395 ], [ -122.5053738, 37.8221063 ], [ -122.5055413, 37.8221622 ], [ -122.5055331, 37.8222685 ], [ -122.5057561, 37.8224138 ], [ -122.5057643, 37.8224893 ], [ -122.5053927, 37.8226561 ], [ -122.5055154, 37.8229143 ], [ -122.5064026, 37.8234314 ], [ -122.5073948, 37.823739 ], [ -122.508241, 37.8238591 ], [ -122.5096398, 37.8243166 ], [ -122.5114083, 37.824659 ], [ -122.5120246, 37.8245843 ], [ -122.5120759, 37.8244367 ], [ -122.5122936, 37.8243085 ], [ -122.5123837, 37.8244848 ], [ -122.5126016, 37.8245906 ], [ -122.5130733, 37.8246521 ], [ -122.5135823, 37.8249447 ], [ -122.5148821, 37.8252927 ], [ -122.51621, 37.8253308 ], [ -122.5166412, 37.8250947 ], [ -122.5169027, 37.8246828 ], [ -122.5170381, 37.8246275 ], [ -122.5172452, 37.8251267 ], [ -122.5181854, 37.8253886 ], [ -122.5190198, 37.8253111 ], [ -122.5193295, 37.8249865 ], [ -122.5197203, 37.8250922 ], [ -122.5198526, 37.8252226 ], [ -122.5206451, 37.8252531 ], [ -122.5209839, 37.8252296 ], [ -122.5214691, 37.8250712 ], [ -122.5220545, 37.8251461 ], [ -122.522377, 37.8250626 ], [ -122.5231213, 37.8250415 ], [ -122.5233766, 37.8249111 ], [ -122.5235603, 37.8249148 ], [ -122.5235027, 37.8247132 ], [ -122.5237767, 37.8247439 ], [ -122.523909, 37.8246701 ], [ -122.5238358, 37.8239361 ], [ -122.5239682, 37.823802 ], [ -122.5244492, 37.8236557 ], [ -122.5247543, 37.8230864 ], [ -122.524748, 37.8229376 ], [ -122.5244149, 37.8226056 ], [ -122.5249411, 37.8223757 ], [ -122.5252649, 37.8224716 ], [ -122.525503, 37.822431 ], [ -122.5255466, 37.8223474 ], [ -122.5253676, 37.8222269 ], [ -122.5254875, 37.8220683 ], [ -122.5257801, 37.821981 ], [ -122.5258984, 37.8218113 ], [ -122.5259124, 37.8217276 ], [ -122.525626, 37.8214424 ], [ -122.5256914, 37.821301 ], [ -122.5259124, 37.8212592 ], [ -122.5258112, 37.8210526 ], [ -122.5261179, 37.8210034 ], [ -122.5266005, 37.8211891 ], [ -122.526409, 37.8209198 ], [ -122.5265242, 37.8208288 ], [ -122.5269694, 37.8210722 ], [ -122.5272496, 37.8210833 ], [ -122.5279112, 37.8208927 ], [ -122.5283206, 37.8206824 ], [ -122.5285494, 37.8204451 ], [ -122.5289246, 37.8202939 ], [ -122.5290585, 37.8201254 ], [ -122.5289557, 37.8199114 ], [ -122.5292546, 37.8198229 ], [ -122.5292842, 37.8195118 ], [ -122.5287643, 37.8190333 ], [ -122.5288622, 37.818956 ], [ -122.5292055, 37.8191802 ], [ -122.5291188, 37.8192558 ], [ -122.5293205, 37.8193729 ], [ -122.5296137, 37.8190763 ], [ -122.529637, 37.8186398 ], [ -122.529333, 37.8183559 ], [ -122.5293097, 37.8180084 ], [ -122.5290022, 37.8178544 ], [ -122.5287196, 37.8173643 ], [ -122.5287161, 37.817199 ], [ -122.5289914, 37.8171425 ], [ -122.5291613, 37.8169574 ], [ -122.5288859, 37.8167376 ], [ -122.5286969, 37.8163043 ], [ -122.5283908, 37.8159619 ], [ -122.5280971, 37.8158321 ], [ -122.5279985, 37.8155806 ], [ -122.5280478, 37.8152301 ], [ -122.5282943, 37.8154849 ], [ -122.5285018, 37.8155206 ], [ -122.5286948, 37.8154394 ], [ -122.5288694, 37.8155936 ], [ -122.5290625, 37.8156131 ], [ -122.529272, 37.8155011 ], [ -122.529385, 37.8151766 ], [ -122.5296048, 37.8153551 ], [ -122.5301101, 37.8153729 ], [ -122.6162066, 37.8153638 ] ] ] ] } }
]
}
